STRIX-BETA              
1 51847U 22020A   26068.81006817  .00254279  00000+0  15321-2 0  9996
2 51847  97.5704 163.5020 0005628 250.1372 109.9287 15.76952977222995
STARLINK-36352          
1 67567U 26016G   26068.68082424  .00224247  00000+0  14643-2 0  9992
2 67567  97.2836 129.1934 0001853  70.8878 289.2588 15.75202999  6807
